{"type": "FeatureCollection", "features": [ {"type": "Feature", "properties": {"norad_id": 66525, "name": "STARLINK-35975", "group": "last-30-days", "lat": -21.84344559538269, "lon": -106.6044085111201, "alt_km": 438.0494221430936, "timestamp": "2025-12-13T18:50:03.172271+00:00", "meta": {"OBJECT_NAME": "STARLINK-35975", "OBJECT_ID": "2025-265K", "EPOCH": "2025-12-13T06:00:02.000160", "MEAN_MOTION": 15.45672217, "ECCENTRICITY": 0.00012543, "INCLINATION": 43.0007, "RA_OF_ASC_NODE": 51.0178, "ARG_OF_PERICENTER": 281.7556, "MEAN_ANOMALY": 194.535, "EPHEMERIS_TYPE": 0, "CLASSIFICATION_TYPE": "U", "NORAD_CAT_ID": 66525, "ELEMENT_SET_NO": 999, "REV_AT_EPOCH": 507, "BSTAR": -0.046732752, "MEAN_MOTION_DOT": -0.02052905, "MEAN_MOTION_DDOT": 0}, "tle": {"line1": "1 66525U 25265K   25347.25002315 -.02052905  00000+0 -46733-1 0  9991", "line2": "2 66525  43.0007  51.0178 0001254 281.7556 194.5350 15.45672217  5077"}}, "geometry": {"type": "Point", "coordinates": [-106.6044085111201, -21.84344559538269]}}, {"type": "Feature", "properties": {"norad_id": 66526, "name": "STARLINK-35932", "group": "last-30-days", "lat": -34.79658458178514, "lon": -83.91706180577096, "alt_km": 415.77538688705135, "timestamp": "2025-12-13T18:50:03.172281+00:00", "meta": {"OBJECT_NAME": "STARLINK-35932", "OBJECT_ID": "2025-265L", "EPOCH": "2025-12-13T05:27:07.125120", "MEAN_MOTION": 15.50726312, "ECCENTRICITY": 0.00021082, "INCLINATION": 43.0002, "RA_OF_ASC_NODE": 51.1228, "ARG_OF_PERICENTER": 220.0672, "MEAN_ANOMALY": 140.0033, "EPHEMERIS_TYPE": 0, "CLASSIFICATION_TYPE": "U", "NORAD_CAT_ID": 66526, "ELEMENT_SET_NO": 999, "REV_AT_EPOCH": 383, "BSTAR": 0.0022279534, "MEAN_MOTION_DOT": 0.00133312, "MEAN_MOTION_DDOT": 0}, "tle": {"line1": "1 66526U 25265L   25347.22716580  .00133312  00000+0  22280-2 0  9995", "line2": "2 66526  43.0002  51.1228 0002108 220.0672 140.0033 15.50726312  3832"}}, "geometry": {"type": "Point", "coordinates": [-83.91706180577096, -34.79658458178514]}}, {"type": "Feature", "properties": {"norad_id": 66527, "name": "STARLINK-35935", "group": "last-30-days", "lat": -35.565854252090475, "lon": -82.03041325474847, "alt_km": 415.56445129268195, "timestamp": "2025-12-13T18:50:03.172291+00:00", "meta": {"OBJECT_NAME": "STARLINK-35935", "OBJECT_ID": "2025-265M", "EPOCH": "2025-12-13T05:26:38.429088", "MEAN_MOTION": 15.50657298, "ECCENTRICITY": 0.00026181, "INCLINATION": 43, "RA_OF_ASC_NODE": 51.1205, "ARG_OF_PERICENTER": 241.691, "MEAN_ANOMALY": 118.3686, "EPHEMERIS_TYPE": 0, "CLASSIFICATION_TYPE": "U", "NORAD_CAT_ID": 66527, "ELEMENT_SET_NO": 999, "REV_AT_EPOCH": 383, "BSTAR": 0.0026952189, "MEAN_MOTION_DOT": 0.00161536, "MEAN_MOTION_DDOT": 0}, "tle": {"line1": "1 66527U 25265M   25347.22683367  .00161536  00000+0  26952-2 0  9991", "line2": "2 66527  43.0000  51.1205 0002618 241.6910 118.3686 15.50657298  3834"}}, "geometry": {"type": "Point", "coordinates": [-82.03041325474847, -35.565854252090475]}}, {"type": "Feature", "properties": {"norad_id": 66528, "name": "STARLINK-35928", "group": "last-30-days", "lat": -36.4196482612329, "lon": -79.80088609361945, "alt_km": 416.37600487118016, "timestamp": "2025-12-13T18:50:03.172301+00:00", "meta": {"OBJECT_NAME": "STARLINK-35928", "OBJECT_ID": "2025-265N", "EPOCH": "2025-12-13T05:26:07.500480", "MEAN_MOTION": 15.50677627, "ECCENTRICITY": 0.00016186, "INCLINATION": 43.0003, "RA_OF_ASC_NODE": 51.1174, "ARG_OF_PERICENTER": 249.0032, "MEAN_ANOMALY": 111.0655, "EPHEMERIS_TYPE": 0, "CLASSIFICATION_TYPE": "U", "NORAD_CAT_ID": 66528, "ELEMENT_SET_NO": 999, "REV_AT_EPOCH": 383, "BSTAR": 0.0019617765, "MEAN_MOTION_DOT": 0.00116891, "MEAN_MOTION_DDOT": 0}, "tle": {"line1": "1 66528U 25265N   25347.22647570  .00116891  00000+0  19618-2 0  9993", "line2": "2 66528  43.0003  51.1174 0001618 249.0032 111.0655 15.50677627  3833"}}, "geometry": {"type": "Point", "coordinates": [-79.80088609361945, -36.4196482612329]}}, {"type": "Feature", "properties": {"norad_id": 66529, "name": "STARLINK-35933", "group": "last-30-days", "lat": 1.1284804510307147, "lon": -133.2093376344238, "alt_km": 443.89447917025063, "timestamp": "2025-12-13T18:50:03.172311+00:00", "meta": {"OBJECT_NAME": "STARLINK-35933", "OBJECT_ID": "2025-265P", "EPOCH": "2025-12-13T06:00:02.000160", "MEAN_MOTION": 15.40738784, "ECCENTRICITY": 0.0001325, "INCLINATION": 43.0007, "RA_OF_ASC_NODE": 51.0838, "ARG_OF_PERICENTER": 252.8187, "MEAN_ANOMALY": 196.1113, "EPHEMERIS_TYPE": 0, "CLASSIFICATION_TYPE": "U", "NORAD_CAT_ID": 66529, "ELEMENT_SET_NO": 999, "REV_AT_EPOCH": 507, "BSTAR": -0.0041295528, "MEAN_MOTION_DOT": -0.00169252, "MEAN_MOTION_DDOT": 0}, "tle": {"line1": "1 66529U 25265P   25347.25002315 -.00169252  00000+0 -41296-2 0  9997", "line2": "2 66529  43.0007  51.0838 0001325 252.8187 196.1113 15.40738784  5074"}}, "geometry": {"type": "Point", "coordinates": [-133.2093376344238, 1.1284804510307147]}}, {"type": "Feature", "properties": {"norad_id": 66530, "name": "STARLINK-35961", "group": "last-30-days", "lat": -15.603956690309639, "lon": -114.6184987593377, "alt_km": 446.4649176288176, "timestamp": "2025-12-13T18:50:03.172324+00:00", "meta": {"OBJECT_NAME": "STARLINK-35961", "OBJECT_ID": "2025-265Q", "EPOCH": "2025-12-13T06:00:02.000160", "MEAN_MOTION": 15.43055059, "ECCENTRICITY": 0.00010147, "INCLINATION": 43.0003, "RA_OF_ASC_NODE": 51.0286, "ARG_OF_PERICENTER": 291.121, "MEAN_ANOMALY": 180.6632, "EPHEMERIS_TYPE": 0, "CLASSIFICATION_TYPE": "U", "NORAD_CAT_ID": 66530, "ELEMENT_SET_NO": 999, "REV_AT_EPOCH": 507, "BSTAR": -0.057596095, "MEAN_MOTION_DOT": -0.02323287, "MEAN_MOTION_DDOT": 0}, "tle": {"line1": "1 66530U 25265Q   25347.25002315 -.02323287  00000+0 -57596-1 0  9990", "line2": "2 66530  43.0003  51.0286 0001014 291.1210 180.6632 15.43055059  5071"}}, "geometry": {"type": "Point", "coordinates": [-114.6184987593377, -15.603956690309639]}}, {"type": "Feature", "properties": {"norad_id": 66531, "name": "STARLINK-35960", "group": "last-30-days", "lat": -28.963152768088847, "lon": -95.6759937116743, "alt_km": 438.0322381109172, "timestamp": "2025-12-13T18:50:03.172336+00:00", "meta": {"OBJECT_NAME": "STARLINK-35960", "OBJECT_ID": "2025-265R", "EPOCH": "2025-12-13T06:00:02.000160", "MEAN_MOTION": 15.45795099, "ECCENTRICITY": 0.00011209, "INCLINATION": 43.0009, "RA_OF_ASC_NODE": 50.9881, "ARG_OF_PERICENTER": 280.848, "MEAN_ANOMALY": 207.4024, "EPHEMERIS_TYPE": 0, "CLASSIFICATION_TYPE": "U", "NORAD_CAT_ID": 66531, "ELEMENT_SET_NO": 999, "REV_AT_EPOCH": 507, "BSTAR": -0.046668807, "MEAN_MOTION_DOT": -0.0205812, "MEAN_MOTION_DDOT": 0}, "tle": {"line1": "1 66531U 25265R   25347.25002315 -.02058120  00000+0 -46669-1 0  9991", "line2": "2 66531  43.0009  50.9881 0001120 280.8480 207.4024 15.45795099  5079"}}, "geometry": {"type": "Point", "coordinates": [-95.6759937116743, -28.963152768088847]}}, {"type": "Feature", "properties": {"norad_id": 66532, "name": "STARLINK-35914", "group": "last-30-days", "lat": -38.057299926746545, "lon": -75.00410072496724, "alt_km": 418.2942172198709, "timestamp": "2025-12-13T18:50:03.172347+00:00", "meta": {"OBJECT_NAME": "STARLINK-35914", "OBJECT_ID": "2025-265S", "EPOCH": "2025-12-13T05:24:28.150848", "MEAN_MOTION": 15.49564974, "ECCENTRICITY": 0.00041887, "INCLINATION": 43, "RA_OF_ASC_NODE": 51.1077, "ARG_OF_PERICENTER": 215.0965, "MEAN_ANOMALY": 144.962, "EPHEMERIS_TYPE": 0, "CLASSIFICATION_TYPE": "U", "NORAD_CAT_ID": 66532, "ELEMENT_SET_NO": 999, "REV_AT_EPOCH": 383, "BSTAR": 0.0016263697, "MEAN_MOTION_DOT": 0.00092825, "MEAN_MOTION_DDOT": 0}, "tle": {"line1": "1 66532U 25265S   25347.22532582  .00092825  00000+0  16264-2 0  9998", "line2": "2 66532  43.0000  51.1077 0004188 215.0965 144.9620 15.49564974  3835"}}, "geometry": {"type": "Point", "coordinates": [-75.00410072496724, -38.057299926746545]}}, {"type": "Feature", "properties": {"norad_id": 66533, "name": "STARLINK-35707", "group": "last-30-days", "lat": -39.87686501133632, "lon": -68.46685621866627, "alt_km": 416.5677782636767, "timestamp": "2025-12-13T18:50:03.172357+00:00", "meta": {"OBJECT_NAME": "STARLINK-35707", "OBJECT_ID": "2025-265T", "EPOCH": "2025-12-13T05:23:39.466176", "MEAN_MOTION": 15.50663253, "ECCENTRICITY": 0.00015507, "INCLINATION": 43.0002, "RA_OF_ASC_NODE": 51.1035, "ARG_OF_PERICENTER": 267.9622, "MEAN_ANOMALY": 92.106, "EPHEMERIS_TYPE": 0, "CLASSIFICATION_TYPE": "U", "NORAD_CAT_ID": 66533, "ELEMENT_SET_NO": 999, "REV_AT_EPOCH": 383, "BSTAR": 0.0025285167, "MEAN_MOTION_DOT": 0.00151351, "MEAN_MOTION_DDOT": 0}, "tle": {"line1": "1 66533U 25265T   25347.22476234  .00151351  00000+0  25285-2 0  9993", "line2": "2 66533  43.0002  51.1035 0001550 267.9622  92.1060 15.50663253  3832"}}, "geometry": {"type": "Point", "coordinates": [-68.46685621866627, -39.87686501133632]}}, {"type": "Feature", "properties": {"norad_id": 66534, "name": "STARLINK-35976", "group": "last-30-days", "lat": -40.286567975574954, "lon": -66.72397863416249, "alt_km": 417.8208782640313, "timestamp": "2025-12-13T18:50:03.172367+00:00", "meta": {"OBJECT_NAME": "STARLINK-35976", "OBJECT_ID": "2025-265U", "EPOCH": "2025-12-13T00:00:07.999776", "MEAN_MOTION": 15.50663177, "ECCENTRICITY": 0.00015196, "INCLINATION": 43.0007, "RA_OF_ASC_NODE": 52.412, "ARG_OF_PERICENTER": 261.8871, "MEAN_ANOMALY": 284.444, "EPHEMERIS_TYPE": 0, "CLASSIFICATION_TYPE": "U", "NORAD_CAT_ID": 66534, "ELEMENT_SET_NO": 999, "REV_AT_EPOCH": 503, "BSTAR": -0.0030091545, "MEAN_MOTION_DOT": -0.0017354, "MEAN_MOTION_DDOT": 0}, "tle": {"line1": "1 66534U 25265U   25347.00009259 -.00173540  00000+0 -30092-2 0  9997", "line2": "2 66534  43.0007  52.4120 0001519 261.8871 284.4440 15.50663177  5038"}}, "geometry": {"type": "Point", "coordinates": [-66.72397863416249, -40.286567975574954]}}]}